{
  "norad_id": 63150,
  "name": "STARLINK-32919",
  "history": [
    {
      "epoch": "2026-05-04T20:44:33.487008Z",
      "apogee_km": 483.85713781579307,
      "perigee_km": 482.2502469556357,
      "latitude_deg": 3.29236748628907e-05,
      "longitude_deg": -114.91518954403062,
      "height_km": 482.85645458077823,
      "semi_major_axis_km": 6861.190692385714,
      "eccentricity": 0.0001171,
      "inclination_deg": 43.0023,
      "raan_deg": 58.9718,
      "arg_perigee_deg": 268.1452,
      "mean_anomaly_deg": 91.9266,
      "mean_motion_rev_day": 15.27578465
    },
    {
      "epoch": "2026-05-05T20:16:54.585408Z",
      "apogee_km": 483.9004559152381,
      "perigee_km": 482.0822569007896,
      "latitude_deg": 8.67611707939436e-06,
      "longitude_deg": -114.50714949096955,
      "height_km": 482.7908096324882,
      "semi_major_axis_km": 6861.128356408013,
      "eccentricity": 0.0001325,
      "inclination_deg": 43.0034,
      "raan_deg": 53.4345,
      "arg_perigee_deg": 268.5855,
      "mean_anomaly_deg": 91.4845,
      "mean_motion_rev_day": 15.27599283
    },
    {
      "epoch": "2026-05-06T11:58:27.763680Z",
      "apogee_km": 484.77260180536086,
      "perigee_km": 481.1658554830874,
      "latitude_deg": 1.680183715641856e-05,
      "longitude_deg": 5.766543761880518,
      "height_km": 482.9078625779145,
      "semi_major_axis_km": 6861.106228644224,
      "eccentricity": 0.00026284,
      "inclination_deg": 43.0077,
      "raan_deg": 49.7409,
      "arg_perigee_deg": 264.9037,
      "mean_anomaly_deg": 95.1515,
      "mean_motion_rev_day": 15.27606673
    },
    {
      "epoch": "2026-05-07T19:21:35.550144Z",
      "apogee_km": 484.3569533208838,
      "perigee_km": 481.4588479548547,
      "latitude_deg": 2.9721966888294034e-05,
      "longitude_deg": -113.68664729151727,
      "height_km": 482.9421599114294,
      "semi_major_axis_km": 6861.0449006378685,
      "eccentricity": 0.0002112,
      "inclination_deg": 43.0067,
      "raan_deg": 42.3591,
      "arg_perigee_deg": 259.8113,
      "mean_anomaly_deg": 100.2501,
      "mean_motion_rev_day": 15.27627155
    }
  ]
}